1 08820U 76039A   03161.69247827  .00000024  00000-0  10000-3 0  9269
2 08820 109.8043 179.3782 0044576 302.7957  56.8464  6.38664418376646
